[{"OBJECT_NAME":"ONEWEB-0027","OBJECT_ID":"2020-020J","EPOCH":"2025-09-29T20:16:30.251712","MEAN_MOTION":13.17649097,"ECCENTRICITY":0.0001927,"INCLINATION":87.9076,"RA_OF_ASC_NODE":57.614,"ARG_OF_PERICENTER":102.9876,"MEAN_ANOMALY":257.1471,"EPHEMERIS_TYPE":0,"CLASSIFICATION_TYPE":"U","NORAD_CAT_ID":45432,"ELEMENT_SET_NO":999,"REV_AT_EPOCH":27207,"BSTAR":-0.00053137,"MEAN_MOTION_DOT":-1.93e-6,"MEAN_MOTION_DDOT":0},{"OBJECT_NAME":"ONEWEB-0064","OBJECT_ID":"2020-020K","EPOCH":"2025-09-30T03:59:27.240864","MEAN_MOTION":13.11416672,"ECCENTRICITY":0.00017331,"INCLINATION":87.879,"RA_OF_ASC_NODE":72.867,"ARG_OF_PERICENTER":97.9706,"MEAN_ANOMALY":262.1619,"EPHEMERIS_TYPE":0,"CLASSIFICATION_TYPE":"U","NORAD_CAT_ID":45433,"ELEMENT_SET_NO":999,"REV_AT_EPOCH":26860,"BSTAR":-0.0016362661,"MEAN_MOTION_DOT":-5.67e-6,"MEAN_MOTION_DDOT":0},{"OBJECT_NAME":"ONEWEB-0018","OBJECT_ID":"2020-020L","EPOCH":"2025-09-29T23:16:16.093344","MEAN_MOTION":13.11417223,"ECCENTRICITY":0.0001569,"INCLINATION":87.8798,"RA_OF_ASC_NODE":72.8914,"ARG_OF_PERICENTER":91.1254,"MEAN_ANOMALY":269.0053,"EPHEMERIS_TYPE":0,"CLASSIFICATION_TYPE":"U","NORAD_CAT_ID":45434,"ELEMENT_SET_NO":999,"REV_AT_EPOCH":26852,"BSTAR":0.0016222,"MEAN_MOTION_DOT":5.88e-6,"MEAN_MOTION_DDOT":0},{"OBJECT_NAME":"ONEWEB-0083","OBJECT_ID":"2020-020M","EPOCH":"2025-09-29T21:12:57.994848","MEAN_MOTION":13.11421197,"ECCENTRICITY":0.0001571,"INCLINATION":87.88,"RA_OF_ASC_NODE":72.8981,"ARG_OF_PERICENTER":93.4049,"MEAN_ANOMALY":266.7259,"EPHEMERIS_TYPE":0,"CLASSIFICATION_TYPE":"U","NORAD_CAT_ID":45435,"ELEMENT_SET_NO":999,"REV_AT_EPOCH":26855,"BSTAR":0.00080768,"MEAN_MOTION_DOT":2.99e-6,"MEAN_MOTION_DDOT":0},{"OBJECT_NAME":"ONEWEB-0095","OBJECT_ID":"2020-020N","EPOCH":"2025-09-29T20:59:44.232864","MEAN_MOTION":13.11418452,"ECCENTRICITY":0.0002393,"INCLINATION":87.8788,"RA_OF_ASC_NODE":72.9175,"ARG_OF_PERICENTER":87.5559,"MEAN_ANOMALY":272.5843,"EPHEMERIS_TYPE":0,"CLASSIFICATION_TYPE":"U","NORAD_CAT_ID":45436,"ELEMENT_SET_NO":999,"REV_AT_EPOCH":26855,"BSTAR":-0.00032679,"MEAN_MOTION_DOT":-1.03e-6,"MEAN_MOTION_DDOT":0},{"OBJECT_NAME":"ONEWEB-0092","OBJECT_ID":"2020-020P","EPOCH":"2025-09-29T20:19:14.370240","MEAN_MOTION":13.11415714,"ECCENTRICITY":0.0001826,"INCLINATION":87.8795,"RA_OF_ASC_NODE":72.9158,"ARG_OF_PERICENTER":84.0129,"MEAN_ANOMALY":276.1207,"EPHEMERIS_TYPE":0,"CLASSIFICATION_TYPE":"U","NORAD_CAT_ID":45437,"ELEMENT_SET_NO":999,"REV_AT_EPOCH":26866,"BSTAR":-0.00042506,"MEAN_MOTION_DOT":-1.38e-6,"MEAN_MOTION_DDOT":0},{"OBJECT_NAME":"ONEWEB-0085","OBJECT_ID":"2020-020Q","EPOCH":"2025-09-29T21:11:44.333664","MEAN_MOTION":13.11420089,"ECCENTRICITY":0.0001609,"INCLINATION":87.8793,"RA_OF_ASC_NODE":72.9218,"ARG_OF_PERICENTER":89.8402,"MEAN_ANOMALY":270.2911,"EPHEMERIS_TYPE":0,"CLASSIFICATION_TYPE":"U","NORAD_CAT_ID":45438,"ELEMENT_SET_NO":999,"REV_AT_EPOCH":26855,"BSTAR":0.00065174,"MEAN_MOTION_DOT":2.44e-6,"MEAN_MOTION_DDOT":0},{"OBJECT_NAME":"ONEWEB-0096","OBJECT_ID":"2020-020R","EPOCH":"2025-09-29T21:14:11.228352","MEAN_MOTION":13.11418391,"ECCENTRICITY":0.0001426,"INCLINATION":87.8809,"RA_OF_ASC_NODE":72.8932,"ARG_OF_PERICENTER":88.1841,"MEAN_ANOMALY":271.9451,"EPHEMERIS_TYPE":0,"CLASSIFICATION_TYPE":"U","NORAD_CAT_ID":45439,"ELEMENT_SET_NO":999,"REV_AT_EPOCH":26854,"BSTAR":0.0010443,"MEAN_MOTION_DOT":3.83e-6,"MEAN_MOTION_DDOT":0},{"OBJECT_NAME":"ONEWEB-0037","OBJECT_ID":"2020-020S","EPOCH":"2025-09-30T04:05:33.509472","MEAN_MOTION":13.11417944,"ECCENTRICITY":0.00017347,"INCLINATION":87.8808,"RA_OF_ASC_NODE":72.8019,"ARG_OF_PERICENTER":90.4546,"MEAN_ANOMALY":269.6781,"EPHEMERIS_TYPE":0,"CLASSIFICATION_TYPE":"U","NORAD_CAT_ID":45440,"ELEMENT_SET_NO":999,"REV_AT_EPOCH":26861,"BSTAR":-0.0016368391,"MEAN_MOTION_DOT":-5.67e-6,"MEAN_MOTION_DDOT":0},{"OBJECT_NAME":"ONEWEB-0042","OBJECT_ID":"2020-020T","EPOCH":"2025-09-29T11:49:59.029248","MEAN_MOTION":13.11418193,"ECCENTRICITY":0.00016797,"INCLINATION":87.8793,"RA_OF_ASC_NODE":72.9749,"ARG_OF_PERICENTER":86.6237,"MEAN_ANOMALY":273.5083,"EPHEMERIS_TYPE":0,"CLASSIFICATION_TYPE":"U","NORAD_CAT_ID":45441,"ELEMENT_SET_NO":999,"REV_AT_EPOCH":26849,"BSTAR":-0.00017940559,"MEAN_MOTION_DOT":-5.1e-7,"MEAN_MOTION_DDOT":0},{"OBJECT_NAME":"ONEWEB-0098","OBJECT_ID":"2020-020U","EPOCH":"2025-09-29T11:44:04.689024","MEAN_MOTION":13.11419036,"ECCENTRICITY":0.00016011,"INCLINATION":87.8798,"RA_OF_ASC_NODE":72.9872,"ARG_OF_PERICENTER":93.7842,"MEAN_ANOMALY":266.3469,"EPHEMERIS_TYPE":0,"CLASSIFICATION_TYPE":"U","NORAD_CAT_ID":45442,"ELEMENT_SET_NO":999,"REV_AT_EPOCH":26847,"BSTAR":-0.000837478,"MEAN_MOTION_DOT":-2.84e-6,"MEAN_MOTION_DDOT":0},{"OBJECT_NAME":"ONEWEB-0055","OBJECT_ID":"2020-020V","EPOCH":"2025-09-30T00:08:43.599552","MEAN_MOTION":13.11415125,"ECCENTRICITY":0.0001613,"INCLINATION":87.8792,"RA_OF_ASC_NODE":72.8846,"ARG_OF_PERICENTER":90.7092,"MEAN_ANOMALY":269.4221,"EPHEMERIS_TYPE":0,"CLASSIFICATION_TYPE":"U","NORAD_CAT_ID":45443,"ELEMENT_SET_NO":999,"REV_AT_EPOCH":26851,"BSTAR":-0.0011200604,"MEAN_MOTION_DOT":-3.84e-6,"MEAN_MOTION_DDOT":0},{"OBJECT_NAME":"ONEWEB-0093","OBJECT_ID":"2020-020W","EPOCH":"2025-09-30T05:03:09.039456","MEAN_MOTION":13.11416164,"ECCENTRICITY":0.00015348,"INCLINATION":87.88,"RA_OF_ASC_NODE":72.8298,"ARG_OF_PERICENTER":74.7806,"MEAN_ANOMALY":285.3491,"EPHEMERIS_TYPE":0,"CLASSIFICATION_TYPE":"U","NORAD_CAT_ID":45444,"ELEMENT_SET_NO":999,"REV_AT_EPOCH":26860,"BSTAR":0.0011909836,"MEAN_MOTION_DOT":4.35e-6,"MEAN_MOTION_DDOT":0},{"OBJECT_NAME":"ONEWEB-0029","OBJECT_ID":"2020-020X","EPOCH":"2025-09-29T20:16:47.659584","MEAN_MOTION":13.11413724,"ECCENTRICITY":0.0001493,"INCLINATION":87.8797,"RA_OF_ASC_NODE":72.9149,"ARG_OF_PERICENTER":84.7482,"MEAN_ANOMALY":275.3816,"EPHEMERIS_TYPE":0,"CLASSIFICATION_TYPE":"U","NORAD_CAT_ID":45445,"ELEMENT_SET_NO":999,"REV_AT_EPOCH":26853,"BSTAR":-0.00024259,"MEAN_MOTION_DOT":-7.3e-7,"MEAN_MOTION_DDOT":0},{"OBJECT_NAME":"ONEWEB-0068","OBJECT_ID":"2020-020Y","EPOCH":"2025-09-30T05:02:45.590496","MEAN_MOTION":13.11414413,"ECCENTRICITY":0.00014915,"INCLINATION":87.8799,"RA_OF_ASC_NODE":72.8307,"ARG_OF_PERICENTER":88.8706,"MEAN_ANOMALY":271.2593,"EPHEMERIS_TYPE":0,"CLASSIFICATION_TYPE":"U","NORAD_CAT_ID":45446,"ELEMENT_SET_NO":999,"REV_AT_EPOCH":26852,"BSTAR":0.0010249236,"MEAN_MOTION_DOT":3.76e-6,"MEAN_MOTION_DDOT":0},{"OBJECT_NAME":"ONEWEB-0046","OBJECT_ID":"2020-020Z","EPOCH":"2025-09-29T21:31:16.948416","MEAN_MOTION":13.11416033,"ECCENTRICITY":0.0001704,"INCLINATION":87.8795,"RA_OF_ASC_NODE":72.9027,"ARG_OF_PERICENTER":81.2453,"MEAN_ANOMALY":278.8868,"EPHEMERIS_TYPE":0,"CLASSIFICATION_TYPE":"U","NORAD_CAT_ID":45447,"ELEMENT_SET_NO":999,"REV_AT_EPOCH":26849,"BSTAR":0.0016614,"MEAN_MOTION_DOT":6.02e-6,"MEAN_MOTION_DDOT":0},{"OBJECT_NAME":"ONEWEB-0063","OBJECT_ID":"2020-020AA","EPOCH":"2025-09-29T22:12:45.540576","MEAN_MOTION":13.11413271,"ECCENTRICITY":0.0001855,"INCLINATION":87.8796,"RA_OF_ASC_NODE":72.8954,"ARG_OF_PERICENTER":87.9086,"MEAN_ANOMALY":272.2255,"EPHEMERIS_TYPE":0,"CLASSIFICATION_TYPE":"U","NORAD_CAT_ID":45448,"ELEMENT_SET_NO":999,"REV_AT_EPOCH":26858,"BSTAR":-0.00068527,"MEAN_MOTION_DOT":-2.3e-6,"MEAN_MOTION_DDOT":0},{"OBJECT_NAME":"ONEWEB-0019","OBJECT_ID":"2020-020AB","EPOCH":"2025-09-29T21:34:56.470080","MEAN_MOTION":13.11417439,"ECCENTRICITY":0.0001527,"INCLINATION":87.8792,"RA_OF_ASC_NODE":72.915,"ARG_OF_PERICENTER":91.8392,"MEAN_ANOMALY":268.2911,"EPHEMERIS_TYPE":0,"CLASSIFICATION_TYPE":"U","NORAD_CAT_ID":45449,"ELEMENT_SET_NO":999,"REV_AT_EPOCH":26842,"BSTAR":0.0016695,"MEAN_MOTION_DOT":6.04e-6,"MEAN_MOTION_DDOT":0},{"OBJECT_NAME":"ONEWEB-0094","OBJECT_ID":"2020-020AC","EPOCH":"2025-09-29T23:16:21.925344","MEAN_MOTION":13.17638275,"ECCENTRICITY":0.0001579,"INCLINATION":87.9078,"RA_OF_ASC_NODE":57.5838,"ARG_OF_PERICENTER":95.5741,"MEAN_ANOMALY":264.557,"EPHEMERIS_TYPE":0,"CLASSIFICATION_TYPE":"U","NORAD_CAT_ID":45450,"ELEMENT_SET_NO":999,"REV_AT_EPOCH":27204,"BSTAR":-0.00066151,"MEAN_MOTION_DOT":-2.44e-6,"MEAN_MOTION_DDOT":0},{"OBJECT_NAME":"ONEWEB-0087","OBJECT_ID":"2020-020AD","EPOCH":"2025-09-30T03:56:48.585408","MEAN_MOTION":13.11415167,"ECCENTRICITY":0.00013423,"INCLINATION":87.8807,"RA_OF_ASC_NODE":72.7983,"ARG_OF_PERICENTER":87.4453,"MEAN_ANOMALY":272.6828,"EPHEMERIS_TYPE":0,"CLASSIFICATION_TYPE":"U","NORAD_CAT_ID":45451,"ELEMENT_SET_NO":999,"REV_AT_EPOCH":26850,"BSTAR":-0.0012633266,"MEAN_MOTION_DOT":-4.35e-6,"MEAN_MOTION_DDOT":0},{"OBJECT_NAME":"ONEWEB-0082","OBJECT_ID":"2020-020AE","EPOCH":"2025-09-30T03:52:08.349600","MEAN_MOTION":13.11415223,"ECCENTRICITY":0.00014388,"INCLINATION":87.8804,"RA_OF_ASC_NODE":72.8243,"ARG_OF_PERICENTER":92.9729,"MEAN_ANOMALY":267.1564,"EPHEMERIS_TYPE":0,"CLASSIFICATION_TYPE":"U","NORAD_CAT_ID":45452,"ELEMENT_SET_NO":999,"REV_AT_EPOCH":26859,"BSTAR":-0.001578292,"MEAN_MOTION_DOT":-5.47e-6,"MEAN_MOTION_DDOT":0},{"OBJECT_NAME":"ONEWEB-0050","OBJECT_ID":"2020-020AF","EPOCH":"2025-09-30T06:21:30.541248","MEAN_MOTION":14.89177823,"ECCENTRICITY":0.00054013,"INCLINATION":88.4476,"RA_OF_ASC_NODE":269.5189,"ARG_OF_PERICENTER":120.5097,"MEAN_ANOMALY":239.6665,"EPHEMERIS_TYPE":0,"CLASSIFICATION_TYPE":"U","NORAD_CAT_ID":45453,"ELEMENT_SET_NO":999,"REV_AT_EPOCH":30168,"BSTAR":-0.00042090674,"MEAN_MOTION_DOT":-3.945e-5,"MEAN_MOTION_DDOT":0},{"OBJECT_NAME":"ONEWEB-0034","OBJECT_ID":"2020-020AG","EPOCH":"2025-09-29T21:03:11.584224","MEAN_MOTION":13.11418039,"ECCENTRICITY":0.0001604,"INCLINATION":87.8802,"RA_OF_ASC_NODE":72.9018,"ARG_OF_PERICENTER":90.3978,"MEAN_ANOMALY":269.7334,"EPHEMERIS_TYPE":0,"CLASSIFICATION_TYPE":"U","NORAD_CAT_ID":45454,"ELEMENT_SET_NO":999,"REV_AT_EPOCH":26847,"BSTAR":-2.0481e-6,"MEAN_MOTION_DOT":1.2e-7,"MEAN_MOTION_DDOT":0}]
